{"type": "FeatureCollection", "features": [ {"type": "Feature", "properties": {"norad_id": 36011, "name": "IRIDIUM 33 DEB", "group": "iridium-33-debris", "lat": 61.15288154774444, "lon": 38.286567842777785, "alt_km": 755.683842215748, "timestamp": "2025-12-21T14:40:48.304024+00:00", "meta": {"OBJECT_NAME": "IRIDIUM 33 DEB", "OBJECT_ID": "1997-051US", "EPOCH": "2025-12-20T20:53:54.330144", "MEAN_MOTION": 14.41351593, "ECCENTRICITY": 0.0018529, "INCLINATION": 86.3402, "RA_OF_ASC_NODE": 31.9321, "ARG_OF_PERICENTER": 188.5725, "MEAN_ANOMALY": 351.0197, "EPHEMERIS_TYPE": 0, "CLASSIFICATION_TYPE": "U", "NORAD_CAT_ID": 36011, "ELEMENT_SET_NO": 999, "REV_AT_EPOCH": 64657, "BSTAR": 0.00031216, "MEAN_MOTION_DOT": 1.032e-05, "MEAN_MOTION_DDOT": 0}, "tle": {"line1": "1 36011U 97051US  25354.87076771  .00001032  00000+0  31216-3 0  9996", "line2": "2 36011  86.3402  31.9321 0018529 188.5725 351.0197 14.41351593646576"}}, "geometry": {"type": "Point", "coordinates": [38.286567842777785, 61.15288154774444]}}, {"type": "Feature", "properties": {"norad_id": 36012, "name": "IRIDIUM 33 DEB", "group": "iridium-33-debris", "lat": 0.15614732392912767, "lon": -56.03461093869499, "alt_km": 917.4058567369184, "timestamp": "2025-12-21T14:40:48.304034+00:00", "meta": {"OBJECT_NAME": "IRIDIUM 33 DEB", "OBJECT_ID": "1997-051UT", "EPOCH": "2025-12-20T03:08:37.827168", "MEAN_MOTION": 14.1919508, "ECCENTRICITY": 0.02112311, "INCLINATION": 86.442, "RA_OF_ASC_NODE": 304.5525, "ARG_OF_PERICENTER": 239.4211, "MEAN_ANOMALY": 118.5989, "EPHEMERIS_TYPE": 0, "CLASSIFICATION_TYPE": "U", "NORAD_CAT_ID": 36012, "ELEMENT_SET_NO": 999, "REV_AT_EPOCH": 65589, "BSTAR": 0.0028908403, "MEAN_MOTION_DOT": 7.582e-05, "MEAN_MOTION_DDOT": 0}, "tle": {"line1": "1 36012U 97051UT  25354.13099337  .00007582  00000+0  28908-2 0  9998", "line2": "2 36012  86.4420 304.5525 0211231 239.4211 118.5989 14.19195080655896"}}, "geometry": {"type": "Point", "coordinates": [-56.03461093869499, 0.15614732392912767]}}, {"type": "Feature", "properties": {"norad_id": 36028, "name": "IRIDIUM 33 DEB", "group": "iridium-33-debris", "lat": -3.762789376474745, "lon": -57.71850056122794, "alt_km": 571.080612583668, "timestamp": "2025-12-21T14:40:48.304044+00:00", "meta": {"OBJECT_NAME": "IRIDIUM 33 DEB", "OBJECT_ID": "1997-051VK", "EPOCH": "2025-12-19T03:17:05.091936", "MEAN_MOTION": 14.95591145, "ECCENTRICITY": 0.00208389, "INCLINATION": 86.3218, "RA_OF_ASC_NODE": 303.6882, "ARG_OF_PERICENTER": 33.6007, "MEAN_ANOMALY": 326.6539, "EPHEMERIS_TYPE": 0, "CLASSIFICATION_TYPE": "U", "NORAD_CAT_ID": 36028, "ELEMENT_SET_NO": 999, "REV_AT_EPOCH": 87220, "BSTAR": 0.001783846, "MEAN_MOTION_DOT": 0.00019939, "MEAN_MOTION_DDOT": 0}, "tle": {"line1": "1 36028U 97051VK  25353.13686449  .00019939  00000+0  17838-2 0  9999", "line2": "2 36028  86.3218 303.6882 0020838  33.6007 326.6539 14.95591145872206"}}, "geometry": {"type": "Point", "coordinates": [-57.71850056122794, -3.762789376474745]}}, {"type": "Feature", "properties": {"norad_id": 36080, "name": "IRIDIUM 33 DEB", "group": "iridium-33-debris", "lat": 83.32131467048286, "lon": 150.7735603170357, "alt_km": 717.92059285491, "timestamp": "2025-12-21T14:40:48.304054+00:00", "meta": {"OBJECT_NAME": "IRIDIUM 33 DEB", "OBJECT_ID": "1997-051VM", "EPOCH": "2025-12-19T07:27:26.572608", "MEAN_MOTION": 14.4663152, "ECCENTRICITY": 0.0018893, "INCLINATION": 86.3193, "RA_OF_ASC_NODE": 5.1242, "ARG_OF_PERICENTER": 135.9522, "MEAN_ANOMALY": 224.319, "EPHEMERIS_TYPE": 0, "CLASSIFICATION_TYPE": "U", "NORAD_CAT_ID": 36080, "ELEMENT_SET_NO": 999, "REV_AT_EPOCH": 47509, "BSTAR": 0.00042458, "MEAN_MOTION_DOT": 1.555e-05, "MEAN_MOTION_DDOT": 0}, "tle": {"line1": "1 36080U 97051VM  25353.31072422  .00001555  00000+0  42458-3 0  9999", "line2": "2 36080  86.3193   5.1242 0018893 135.9522 224.3190 14.46631520475097"}}, "geometry": {"type": "Point", "coordinates": [150.7735603170357, 83.32131467048286]}}, {"type": "Feature", "properties": {"norad_id": 36083, "name": "IRIDIUM 33 DEB", "group": "iridium-33-debris", "lat": 78.44145404316266, "lon": 48.55399091168035, "alt_km": 747.9795966490947, "timestamp": "2025-12-21T14:40:48.304065+00:00", "meta": {"OBJECT_NAME": "IRIDIUM 33 DEB", "OBJECT_ID": "1997-051VQ", "EPOCH": "2025-12-16T21:09:41.480640", "MEAN_MOTION": 14.43222397, "ECCENTRICITY": 0.00256692, "INCLINATION": 86.3437, "RA_OF_ASC_NODE": 32.3703, "ARG_OF_PERICENTER": 208.6135, "MEAN_ANOMALY": 151.3659, "EPHEMERIS_TYPE": 0, "CLASSIFICATION_TYPE": "U", "NORAD_CAT_ID": 36083, "ELEMENT_SET_NO": 999, "REV_AT_EPOCH": 85509, "BSTAR": 0.00040983827, "MEAN_MOTION_DOT": 1.403e-05, "MEAN_MOTION_DDOT": 0}, "tle": {"line1": "1 36083U 97051VQ  25350.88173010  .00001403  00000+0  40984-3 0  9990", "line2": "2 36083  86.3437  32.3703 0025669 208.6135 151.3659 14.43222397855098"}}, "geometry": {"type": "Point", "coordinates": [48.55399091168035, 78.44145404316266]}}, {"type": "Feature", "properties": {"norad_id": 36390, "name": "IRIDIUM 33 DEB", "group": "iridium-33-debris", "lat": 30.954470058515902, "lon": 113.09603909437054, "alt_km": 626.4537035015319, "timestamp": "2025-12-21T14:40:48.304075+00:00", "meta": {"OBJECT_NAME": "IRIDIUM 33 DEB", "OBJECT_ID": "1997-051VU", "EPOCH": "2025-12-18T02:53:50.749728", "MEAN_MOTION": 14.73679499, "ECCENTRICITY": 0.00315796, "INCLINATION": 86.2911, "RA_OF_ASC_NODE": 296.9257, "ARG_OF_PERICENTER": 143.7695, "MEAN_ANOMALY": 216.5671, "EPHEMERIS_TYPE": 0, "CLASSIFICATION_TYPE": "U", "NORAD_CAT_ID": 36390, "ELEMENT_SET_NO": 999, "REV_AT_EPOCH": 66341, "BSTAR": 0.00081895703, "MEAN_MOTION_DOT": 5.409e-05, "MEAN_MOTION_DDOT": 0}, "tle": {"line1": "1 36390U 97051VU  25352.12072627  .00005409  00000+0  81896-3 0  9999", "line2": "2 36390  86.2911 296.9257 0031579 143.7695 216.5671 14.73679499663417"}}, "geometry": {"type": "Point", "coordinates": [113.09603909437054, 30.954470058515902]}}, {"type": "Feature", "properties": {"norad_id": 36483, "name": "IRIDIUM 33 DEB", "group": "iridium-33-debris", "lat": -34.21057865734437, "lon": 46.224362000266304, "alt_km": 751.2489613711405, "timestamp": "2025-12-21T14:40:48.304085+00:00", "meta": {"OBJECT_NAME": "IRIDIUM 33 DEB", "OBJECT_ID": "1997-051VZ", "EPOCH": "2025-12-19T21:18:48.499776", "MEAN_MOTION": 14.45832941, "ECCENTRICITY": 0.0011311, "INCLINATION": 86.3789, "RA_OF_ASC_NODE": 49.4296, "ARG_OF_PERICENTER": 106.3744, "MEAN_ANOMALY": 253.8702, "EPHEMERIS_TYPE": 0, "CLASSIFICATION_TYPE": "U", "NORAD_CAT_ID": 36483, "ELEMENT_SET_NO": 999, "REV_AT_EPOCH": 65249, "BSTAR": 0.00032658, "MEAN_MOTION_DOT": 1.179e-05, "MEAN_MOTION_DDOT": 0}, "tle": {"line1": "1 36483U 97051VZ  25353.88806134  .00001179  00000+0  32658-3 0  9996", "line2": "2 36483  86.3789  49.4296 0011311 106.3744 253.8702 14.45832941652497"}}, "geometry": {"type": "Point", "coordinates": [46.224362000266304, -34.21057865734437]}}, {"type": "Feature", "properties": {"norad_id": 36490, "name": "IRIDIUM 33 DEB", "group": "iridium-33-debris", "lat": 65.42361699535431, "lon": 178.47115317722287, "alt_km": 632.2698130226436, "timestamp": "2025-12-21T14:40:48.304095+00:00", "meta": {"OBJECT_NAME": "IRIDIUM 33 DEB", "OBJECT_ID": "1997-051WG", "EPOCH": "2025-12-20T18:38:39.578208", "MEAN_MOTION": 14.76343752, "ECCENTRICITY": 0.00052455, "INCLINATION": 86.365, "RA_OF_ASC_NODE": 6.8378, "ARG_OF_PERICENTER": 65.8032, "MEAN_ANOMALY": 294.3734, "EPHEMERIS_TYPE": 0, "CLASSIFICATION_TYPE": "U", "NORAD_CAT_ID": 36490, "ELEMENT_SET_NO": 999, "REV_AT_EPOCH": 86603, "BSTAR": 0.00097886565, "MEAN_MOTION_DOT": 6.818e-05, "MEAN_MOTION_DDOT": 0}, "tle": {"line1": "1 36490U 97051WG  25354.77684697  .00006818  00000+0  97887-3 0  9991", "line2": "2 36490  86.3650   6.8378 0005245  65.8032 294.3734 14.76343752866031"}}, "geometry": {"type": "Point", "coordinates": [178.47115317722287, 65.42361699535431]}}, {"type": "Feature", "properties": {"norad_id": 36493, "name": "IRIDIUM 33 DEB", "group": "iridium-33-debris", "lat": 46.11829715092119, "lon": 11.536844718646602, "alt_km": 670.1338633245505, "timestamp": "2025-12-21T14:40:48.304106+00:00", "meta": {"OBJECT_NAME": "IRIDIUM 33 DEB", "OBJECT_ID": "1997-051WK", "EPOCH": "2025-12-20T07:19:49.672128", "MEAN_MOTION": 14.65320442, "ECCENTRICITY": 0.00093315, "INCLINATION": 86.3566, "RA_OF_ASC_NODE": 8.3183, "ARG_OF_PERICENTER": 338.064, "MEAN_ANOMALY": 22.0172, "EPHEMERIS_TYPE": 0, "CLASSIFICATION_TYPE": "U", "NORAD_CAT_ID": 36493, "ELEMENT_SET_NO": 999, "REV_AT_EPOCH": 74629, "BSTAR": 0.0008112231, "MEAN_MOTION_DOT": 4.401e-05, "MEAN_MOTION_DDOT": 0}, "tle": {"line1": "1 36493U 97051WK  25354.30543602  .00004401  00000+0  81122-3 0  9994", "line2": "2 36493  86.3566   8.3183 0009331 338.0640  22.0172 14.65320442746297"}}, "geometry": {"type": "Point", "coordinates": [11.536844718646602, 46.11829715092119]}}, {"type": "Feature", "properties": {"norad_id": 37548, "name": "IRIDIUM 33 DEB", "group": "iridium-33-debris", "lat": 31.583008748151535, "lon": -142.73885785258295, "alt_km": 701.527735725148, "timestamp": "2025-12-21T14:40:48.304116+00:00", "meta": {"OBJECT_NAME": "IRIDIUM 33 DEB", "OBJECT_ID": "1997-051XH", "EPOCH": "2025-12-15T20:39:30.861504", "MEAN_MOTION": 14.51326297, "ECCENTRICITY": 0.00258157, "INCLINATION": 86.3522, "RA_OF_ASC_NODE": 42.0105, "ARG_OF_PERICENTER": 178.4192, "MEAN_ANOMALY": 181.71, "EPHEMERIS_TYPE": 0, "CLASSIFICATION_TYPE": "U", "NORAD_CAT_ID": 37548, "ELEMENT_SET_NO": 999, "REV_AT_EPOCH": 65577, "BSTAR": 0.00067405053, "MEAN_MOTION_DOT": 2.715e-05, "MEAN_MOTION_DDOT": 0}, "tle": {"line1": "1 37548U 97051XH  25349.86077386  .00002715  00000+0  67405-3 0  9996", "line2": "2 37548  86.3522  42.0105 0025815 178.4192 181.7100 14.51326297655778"}}, "geometry": {"type": "Point", "coordinates": [-142.73885785258295, 31.583008748151535]}}]}